{"type": "Feature", "geometry": {"type": "Point", "coordinates": ["-67.12", "4.15"]}, "properties": {"temperature": "100", "pressure": "1.012", "localTime": "Wed Jan 24 2024 10:43:30 GMT-0500 (hora est\u00e1ndar de Colombia)", "julianTime": "1706111010", "utcTime": "10:43:39 AM", "altitude": "486.75", "elevation": "-80.4", "TLE": {"Norad_Id": 56205, "International_Classification": "Unclassified", "International_Designation": "23054AD", "Epoch_Time_(ISO)": "2024-01-24T03:51:50Z", "First_Derivative_Mean_Motion": 0.00029829000000000005, "Second_Derivative_Mean_Motion": 0.0, "Inclination": 97.38620000000002, "Right_Ascension_of_the_Ascending_Node": 282.1187, "Eccentricity": 0.0011626, "Argument_of_Perigee": 315.5655, "Mean_Anomaly": 44.4652, "Mean_Motion": 15.300910539999999, "Revolution_Number_at_Epoch": 4390}}}