FACSAT-2                
1 56205U 23054AD  24024.16099996  .00029829  00000+0  10220-2 0  9999
2 56205  97.3862 282.1187 0011626 315.5655  44.4652 15.30091054 43909
